CCSDS_OMM_VERS = 2.0
CREATION_DATE  = 
ORIGINATOR     = 

OBJECT_NAME    = COSMOS 2550
OBJECT_ID      = 2021-056A
CENTER_NAME    = EARTH
REF_FRAME      = TEME
TIME_SYSTEM    = UTC
MEAN_ELEMENT_THEORY = SGP/SGP4

EPOCH          = 2025-11-19T16:59:08.240064
MEAN_MOTION    = 15.33829463
ECCENTRICITY   = .0007903
INCLINATION    = 67.1440
RA_OF_ASC_NODE = 13.6008
ARG_OF_PERICENTER = 266.6068
MEAN_ANOMALY   = 93.4182

EPHEMERIS_TYPE = 0
CLASSIFICATION_TYPE = U
NORAD_CAT_ID   = 48865
ELEMENT_SET_NO = 999
REV_AT_EPOCH   = 24659
BSTAR          = .15647E-4
MEAN_MOTION_DOT = .323E-5
MEAN_MOTION_DDOT = 0

CCSDS_OMM_VERS = 2.0
CREATION_DATE  = 
ORIGINATOR     = 

OBJECT_NAME    = CZ-2C R/B
OBJECT_ID      = 2022-058K
CENTER_NAME    = EARTH
REF_FRAME      = TEME
TIME_SYSTEM    = UTC
MEAN_ELEMENT_THEORY = SGP/SGP4

EPOCH          = 2025-11-19T19:44:18.411648
MEAN_MOTION    = 15.46920366
ECCENTRICITY   = .0048083
INCLINATION    = 50.1878
RA_OF_ASC_NODE = 160.2821
ARG_OF_PERICENTER = 103.6735
MEAN_ANOMALY   = 256.9592

EPHEMERIS_TYPE = 0
CLASSIFICATION_TYPE = U
NORAD_CAT_ID   = 52794
ELEMENT_SET_NO = 999
REV_AT_EPOCH   = 19308
BSTAR          = .4687E-3
MEAN_MOTION_DOT = .24765E-3
MEAN_MOTION_DDOT = 0

CCSDS_OMM_VERS = 2.0
CREATION_DATE  = 
ORIGINATOR     = 

OBJECT_NAME    = CZ-2C R/B
OBJECT_ID      = 2022-132E
CENTER_NAME    = EARTH
REF_FRAME      = TEME
TIME_SYSTEM    = UTC
MEAN_ELEMENT_THEORY = SGP/SGP4

EPOCH          = 2025-11-19T17:52:02.590752
MEAN_MOTION    = 15.53005999
ECCENTRICITY   = .002343
INCLINATION    = 97.2947
RA_OF_ASC_NODE = 319.5378
ARG_OF_PERICENTER = 132.7684
MEAN_ANOMALY   = 227.5546

EPHEMERIS_TYPE = 0
CLASSIFICATION_TYPE = U
NORAD_CAT_ID   = 54039
ELEMENT_SET_NO = 999
REV_AT_EPOCH   = 17326
BSTAR          = .44176E-3
MEAN_MOTION_DOT = .27831E-3
MEAN_MOTION_DDOT = 0

CCSDS_OMM_VERS = 2.0
CREATION_DATE  = 
ORIGINATOR     = 

OBJECT_NAME    = GSLV R/B
OBJECT_ID      = 2022-138AN
CENTER_NAME    = EARTH
REF_FRAME      = TEME
TIME_SYSTEM    = UTC
MEAN_ELEMENT_THEORY = SGP/SGP4

EPOCH          = 2025-11-19T15:29:32.699904
MEAN_MOTION    = 14.95962732
ECCENTRICITY   = .0021188
INCLINATION    = 87.3849
RA_OF_ASC_NODE = 203.2042
ARG_OF_PERICENTER = 184.6623
MEAN_ANOMALY   = 175.4414

EPHEMERIS_TYPE = 0
CLASSIFICATION_TYPE = U
NORAD_CAT_ID   = 54149
ELEMENT_SET_NO = 999
REV_AT_EPOCH   = 16747
BSTAR          = .20765E-3
MEAN_MOTION_DOT = .2364E-4
MEAN_MOTION_DDOT = 0

CCSDS_OMM_VERS = 2.0
CREATION_DATE  = 
ORIGINATOR     = 

OBJECT_NAME    = XRISM
OBJECT_ID      = 2023-137A
CENTER_NAME    = EARTH
REF_FRAME      = TEME
TIME_SYSTEM    = UTC
MEAN_ELEMENT_THEORY = SGP/SGP4

EPOCH          = 2025-11-19T13:39:05.653152
MEAN_MOTION    = 15.10023328
ECCENTRICITY   = .0007774
INCLINATION    = 31.0030
RA_OF_ASC_NODE = 275.1103
ARG_OF_PERICENTER = 9.2563
MEAN_ANOMALY   = 350.8217

EPHEMERIS_TYPE = 0
CLASSIFICATION_TYPE = U
NORAD_CAT_ID   = 57800
ELEMENT_SET_NO = 999
REV_AT_EPOCH   = 12112
BSTAR          = .37942E-3
MEAN_MOTION_DOT = .642E-4
MEAN_MOTION_DDOT = 0

CCSDS_OMM_VERS = 2.0
CREATION_DATE  = 
ORIGINATOR     = 

OBJECT_NAME    = ACS3
OBJECT_ID      = 2024-077B
CENTER_NAME    = EARTH
REF_FRAME      = TEME
TIME_SYSTEM    = UTC
MEAN_ELEMENT_THEORY = SGP/SGP4

EPOCH          = 2025-11-19T08:12:20.175552
MEAN_MOTION    = 13.84040004
ECCENTRICITY   = .00646623
INCLINATION    = 97.3007
RA_OF_ASC_NODE = 284.1537
ARG_OF_PERICENTER = 19.2134
MEAN_ANOMALY   = 341.1444

EPHEMERIS_TYPE = 0
CLASSIFICATION_TYPE = U
NORAD_CAT_ID   = 59588
ELEMENT_SET_NO = 999
REV_AT_EPOCH   = 7890
BSTAR          = .14960535E-1
MEAN_MOTION_DOT = .16915E-3
MEAN_MOTION_DDOT = 0

