COSMOS 2550             
1 48865U 21056A   25323.70773426  .00000323  00000+0  15647-4 0  9990
2 48865  67.1440  13.6008 0007903 266.6068  93.4182 15.33829463246593
CZ-2C R/B               
1 52794U 22058K   25323.82243532  .00024765  00000+0  46870-3 0  9999
2 52794  50.1878 160.2821 0048083 103.6735 256.9592 15.46920366193087
CZ-2C R/B               
1 54039U 22132E   25323.74447443  .00027831  00000+0  44176-3 0  9998
2 54039  97.2947 319.5378 0023430 132.7684 227.5546 15.53005999173266
GSLV R/B                
1 54149U 22138AN  25323.64551736  .00002364  00000+0  20765-3 0  9998
2 54149  87.3849 203.2042 0021188 184.6623 175.4414 14.95962732167476
XRISM                   
1 57800U 23137A   25323.56881543  .00006420  00000+0  37942-3 0  9990
2 57800  31.0030 275.1103 0007774   9.2563 350.8217 15.10023328121126
ACS3                    
1 59588U 24077B   25323.34190018  .00016915  00000+0  14961-1 0  9999
2 59588  97.3007 284.1537 0064662  19.2134 341.1444 13.84040004 78906
